{"type":"FeatureCollection","name":"India visual outline traced from user-approved reference silhouette","features":[{"type":"Feature","properties":{"name":"India","purpose":"login-globe-reference-outline","source":"user-approved-reference-silhouette","note":"visual overlay only; business/geospatial datasets are unchanged"},"geometry":{"type":"MultiPolygon","coordinates":[[[[74.802695,37.088342],[74.323427,36.877495],[73.872351,36.877495],[73.787774,36.772072],[73.421274,36.71936],[73.36489,36.561225],[72.885621,36.244955],[72.857429,35.955041],[72.99839,35.875974],[73.336697,35.875974],[73.421274,35.717839],[73.872351,35.533348],[73.928735,35.322501],[74.295235,35.190722],[74.23885,34.95352],[73.928735,34.821741],[73.872351,34.663606],[73.675005,34.610894],[73.61862,34.479115],[73.703197,34.241912],[73.731389,33.741152],[73.815966,33.662084],[73.759581,33.398526],[73.844158,33.161323],[74.041504,33.003188],[74.295235,32.976832],[74.577157,32.792342],[74.746311,32.765986],[74.830888,32.607851],[75.253772,32.528783],[75.422925,32.317937],[75.22558,32.159802],[75.000041,32.133446],[74.718119,31.948955],[74.661734,31.764464],[74.746311,31.711753],[74.774503,31.553618],[74.661734,31.316415],[74.774503,31.210992],[74.492581,31.052857],[74.408004,30.868366],[74.041504,30.578452],[74.069696,30.367605],[73.956927,30.262182],[73.505851,30.104047],[73.393082,29.735066],[73.054775,29.234305],[72.434545,28.918035],[72.293583,28.575409],[72.011661,28.364562],[71.927084,28.153716],[71.701546,28.074648],[71.476008,28.074648],[71.306854,28.153716],[71.250469,28.048292],[70.799393,27.916513],[70.686624,27.995581],[70.51747,28.311851],[70.122779,27.995581],[70.066394,27.81109],[69.587125,27.389397],[69.502549,27.204906],[69.502549,26.967703],[69.784471,26.809568],[70.122779,26.809568],[70.179163,26.756857],[70.094586,26.335164],[70.150971,26.071605],[70.348317,25.91347],[70.602047,25.939826],[70.686624,25.887114],[70.686624,25.5972],[70.88397,25.41271],[71.081316,24.96466],[70.996739,24.859237],[71.024931,24.648391],[70.799393,24.490256],[70.602047,24.490256],[70.545663,24.622035],[70.432894,24.648391],[70.094586,24.542967],[70.010009,24.411188],[69.925433,24.411188],[69.840856,24.516611],[69.64351,24.490256],[69.558933,24.542967],[68.76955,24.490256],[68.713165,24.226697],[68.346666,24.226697],[68.177512,24.121274],[68.205704,23.884071],[68.318473,23.884071],[68.346666,23.989495],[68.459435,24.015851],[68.459435,23.805004],[68.684973,23.594157],[68.65678,23.462378],[69.192434,23.119752],[69.671702,23.093397],[69.981817,23.19882],[70.150971,23.356955],[70.320124,23.330599],[70.320124,23.19882],[70.094586,23.040685],[69.925433,22.777127],[69.417972,22.618992],[69.248818,22.645347],[69.192434,22.539924],[69.02328,22.698059],[68.938703,22.698059],[68.882319,22.592636],[70.094586,21.353912],[70.573855,21.063998],[70.912162,21.037642],[72.068045,21.485691],[72.12443,21.696538],[72.237199,21.775605],[72.237199,21.93374],[72.434545,21.907384],[72.406352,22.408145],[72.547314,22.434501],[72.547314,22.223654],[72.631891,22.170943],[72.575506,22.039163],[72.772852,21.93374],[72.716467,21.749249],[72.603698,21.670182],[72.575506,21.459335],[72.829237,21.222133],[72.913813,20.800439],[72.772852,20.589593],[72.688275,20.062476],[72.801044,19.456292],[72.913813,19.298157],[72.857429,18.955531],[73.139352,18.059433],[73.336697,16.741642],[73.477659,16.293593],[73.703197,15.977323],[73.787774,15.687409],[73.900543,15.608341],[73.956927,15.344783],[74.126081,15.054869],[74.267042,15.002157],[74.408004,14.738599],[74.689926,13.895212],[74.830888,13.02547],[75.169195,12.261151],[75.535695,11.892169],[75.563887,11.734034],[75.789425,11.417764],[75.902194,10.943359],[76.043155,10.732513],[76.240501,10.126329],[76.296886,9.572856],[76.466039,9.124807],[76.945308,8.492267],[77.34,8.202353],[77.480961,8.175997],[78.157576,8.492267],[78.270345,8.650402],[78.326729,9.098451],[78.58046,9.309298],[78.862382,9.36201],[78.890575,9.282942],[79.003344,9.282942],[79.144305,9.36201],[79.510805,9.36201],[79.708151,9.282942],[79.482612,9.5465],[79.257074,9.493789],[79.059728,9.572856],[79.031536,9.67828],[79.341651,10.152685],[79.341651,10.337175],[79.567189,10.521666],[79.990073,10.468954],[80.018266,11.417764],[79.905496,11.865813],[79.990073,12.208439],[80.356573,12.788267],[80.497534,13.473519],[80.271996,14.395973],[80.356573,14.817666],[80.187419,15.213004],[80.243804,15.634697],[80.44115,16.030034],[80.69488,16.188169],[80.892226,16.188169],[80.94861,16.05639],[81.06138,16.030034],[81.230533,16.240881],[81.371495,16.609863],[81.512456,16.662574],[81.850763,16.636218],[82.273647,16.820709],[82.414609,17.0052],[82.414609,17.110623],[82.301839,17.163335],[82.358224,17.347826],[82.611954,17.585028],[83.232184,17.901298],[83.626876,18.349347],[84.134337,18.58655],[84.980105,19.614427],[85.431182,19.957053],[86.389719,20.299679],[86.53068,20.510525],[86.699834,20.615949],[86.699834,20.800439],[86.953564,20.98493],[86.78441,21.512047],[87.094525,21.828317],[87.658371,21.960096],[88.053063,22.25001],[88.137639,22.223654],[88.053063,21.986452],[88.701485,22.012808],[88.757869,22.170943],[89.039792,21.986452],[89.067984,22.118231],[88.955215,22.25001],[89.039792,22.302722],[89.067984,22.487213],[88.983408,22.618992],[88.955215,23.146108],[88.870639,23.277887],[88.927023,23.488734],[88.729677,23.541446],[88.786062,23.752292],[88.616908,23.857716],[88.588716,24.14763],[88.786062,24.253053],[88.814254,24.542967],[88.39137,24.622035],[88.165832,24.78017],[88.109447,24.911949],[88.222216,25.175507],[88.363178,25.175507],[88.447754,25.254575],[88.504139,25.465421],[88.983408,25.491777],[88.842446,25.702624],[88.588716,25.728979],[88.334985,26.018894],[88.222216,26.018894],[88.165832,26.097961],[88.222216,26.335164],[88.532331,26.625078],[88.419562,26.756857],[88.532331,26.783213],[88.757869,26.651434],[88.842446,26.519654],[89.067984,26.625078],[89.180753,26.414231],[89.434484,26.282452],[89.575445,26.282452],[89.660022,26.414231],[89.800983,26.387875],[89.941945,26.22974],[89.857368,26.018894],[89.913753,25.939826],[89.857368,25.544489],[90.393021,25.41271],[91.351558,25.439065],[91.520712,25.386354],[91.943596,25.439065],[92.281903,25.359998],[92.507441,25.228219],[92.535634,25.09644],[92.36648,25.070084],[92.253711,24.701102],[91.999981,24.542967],[91.943596,24.384832],[91.74625,24.411188],[91.689866,24.332121],[91.464327,24.332121],[91.407943,24.226697],[91.295174,24.200341],[91.238789,23.83136],[91.351558,23.567802],[91.520712,23.462378],[91.548904,23.277887],[91.718058,23.277887],[91.802635,23.356955],[91.774442,23.594157],[92.028173,23.752292],[92.197326,23.989495],[92.310096,23.989495],[92.451057,23.567802],[92.394672,23.383311],[92.592018,22.908906],[92.62021,22.460857],[92.98671,22.329078],[93.043095,22.460857],[93.212248,22.56628],[93.099479,23.014329],[93.155864,23.304243],[93.325017,23.304243],[93.409594,23.462378],[93.465979,23.910427],[93.35321,24.332121],[93.437786,24.358476],[93.550555,24.226697],[93.804286,24.279409],[93.86067,24.200341],[94.029824,24.226697],[94.114401,24.14763],[94.22717,24.200341],[94.819208,25.333642],[94.734631,25.41271],[94.791015,25.649912],[95.213899,26.22974],[95.157515,26.783213],[96.031475,27.283973],[96.144244,27.442108],[96.369782,27.521176],[96.849051,27.573888],[96.990012,27.389397],[97.159166,27.363041],[96.96182,27.626599],[96.96182,27.837446],[97.384704,28.101004],[97.412896,28.206427],[97.356512,28.259139],[97.384704,28.417274],[97.271935,28.417274],[97.187358,28.549053],[97.018205,28.496342],[96.990012,28.575409],[96.792667,28.575409],[96.764474,28.628121],[96.510744,28.522697],[96.369782,28.575409],[96.397975,28.733544],[96.679897,28.944391],[96.510744,29.181593],[96.257013,29.128881],[96.228821,29.234305],[96.369782,29.366084],[96.116052,29.576931],[95.72136,29.39244],[95.524014,29.155237],[94.875592,29.287016],[94.706439,29.445151],[94.621862,29.339728],[94.368131,29.260661],[94.283554,29.102526],[94.086209,28.970746],[94.058016,28.838967],[93.494171,28.786256],[93.325017,28.601765],[93.296825,28.469986],[92.789364,28.311851],[92.817556,28.12736],[92.676595,28.021937],[92.253711,28.021937],[92.084557,27.916513],[91.774442,27.995581],[91.718058,27.758378],[92.140942,27.679311],[92.197326,27.521176],[92.140942,27.283973],[92.225519,27.204906],[92.169134,27.046771],[91.943596,27.099483],[91.774442,26.994059],[90.703136,26.967703],[90.449406,27.099483],[90.308444,27.073127],[90.223868,26.941348],[89.829176,26.914992],[89.547253,27.020415],[89.519061,27.125838],[89.349907,27.073127],[89.096177,27.204906],[88.955215,27.204906],[88.842446,27.363041],[88.955215,27.521176],[88.842446,27.679311],[88.955215,28.12736],[88.729677,28.285495],[88.278601,28.101004],[88.306793,27.995581],[88.109447,27.310329],[88.222216,27.231262],[88.250409,26.914992],[88.194024,26.651434],[88.109447,26.572366],[87.940294,26.651434],[87.742948,26.572366],[87.51741,26.625078],[87.40464,26.54601],[87.235487,26.598722],[87.122718,26.730501],[86.925372,26.651434],[86.868987,26.783213],[86.78441,26.783213],[86.89718,26.704145],[86.868987,26.625078],[86.417911,26.809568],[85.966835,26.783213],[85.854066,26.86228],[85.882258,26.994059],[85.825873,27.046771],[85.402989,26.941348],[85.318412,27.046771],[85.205643,27.046771],[85.149259,27.152194],[84.895528,27.231262],[84.923721,27.363041],[84.839144,27.49482],[84.529029,27.547532],[84.359875,27.679311],[84.134337,27.626599],[84.077953,27.547532],[83.655068,27.652955],[83.542299,27.521176],[83.457723,27.521176],[83.373146,27.626599],[82.950262,27.679311],[82.922069,27.890157],[82.611954,27.863802],[82.330032,28.048292],[82.104494,28.048292],[80.864034,28.838967],[80.610303,28.865323],[80.384765,29.023458],[80.666688,29.445151],[80.638496,29.603286],[80.807649,29.919556],[81.202341,30.288538],[81.230533,30.393961],[80.976803,30.578452],[80.582111,30.683875],[80.525726,30.894722],[80.159227,31.079213],[79.877304,31.079213],[79.708151,31.184636],[79.45442,31.553618],[79.172497,31.47455],[79.116113,31.579974],[79.144305,31.764464],[79.031536,31.896243],[79.087921,32.054378],[78.862382,32.317937],[79.003344,32.528783],[79.369843,32.449716],[79.567189,32.634207],[79.764535,32.660563],[79.905496,32.792342],[79.708151,33.0559],[79.736343,33.37217],[79.369843,33.37217],[79.228882,33.451237],[79.228882,33.68844],[79.313459,33.767507],[79.257074,34.057421],[79.651766,34.110133],[79.764535,34.268268],[79.877304,34.294624],[79.877304,34.505471],[80.046458,34.558182],[80.131035,34.742673],[80.356573,34.795385],[80.553919,35.322501],[80.582111,35.638771],[80.469342,35.665127],[80.271996,35.875974],[80.046458,35.849618],[79.510805,36.060464],[78.665037,35.849618],[78.298537,35.665127],[77.678307,35.559704],[77.565538,35.638771],[77.565538,35.717839],[77.283615,35.849618],[77.142654,35.823262],[76.888924,36.060464],[76.888924,36.165888],[76.635193,36.271311],[76.550616,36.429446],[75.902194,36.640293],[75.47931,37.061986],[74.802695,37.088342]]],[[[92.930325,13.368096],[92.73298,13.368096],[92.704787,13.315384],[92.73298,13.262672],[92.73298,13.209961],[92.648403,13.130893],[92.648403,13.104537],[92.704787,13.051826],[92.704787,12.972758],[92.62021,12.920047],[92.62021,12.867335],[92.648403,12.840979],[92.648403,12.630132],[92.62021,12.603777],[92.62021,12.419286],[92.563826,12.340218],[92.563826,12.182083],[92.62021,12.129372],[92.62021,12.050304],[92.563826,12.023948],[92.507441,11.944881],[92.507441,11.892169],[92.535634,11.865813],[92.535634,11.786746],[92.592018,11.734034],[92.592018,11.681323],[92.563826,11.628611],[92.62021,11.549543],[92.676595,11.549543],[92.676595,11.602255],[92.704787,11.628611],[92.704787,11.734034],[92.73298,11.76039],[92.704787,11.892169],[92.761172,11.971237],[92.704787,12.07666],[92.704787,12.129372],[92.761172,12.182083],[92.761172,12.208439],[92.789364,12.234795],[92.845749,12.234795],[92.930325,12.155728],[92.930325,12.103016],[92.958518,12.050304],[93.014902,12.050304],[93.014902,12.103016],[92.930325,12.155728],[92.930325,12.234795],[92.958518,12.261151],[92.902133,12.313863],[92.873941,12.313863],[92.873941,12.261151],[92.845749,12.234795],[92.789364,12.234795],[92.761172,12.261151],[92.761172,12.313863],[92.817556,12.340218],[92.817556,12.471997],[92.845749,12.498353],[92.845749,12.551065],[92.902133,12.603777],[92.873941,12.656488],[92.873941,12.893691],[92.930325,12.946402],[92.958518,12.946402],[92.902133,13.051826],[92.902133,13.130893],[92.958518,13.183605],[92.958518,13.236317],[92.930325,13.262672],[92.930325,13.368096]]],[[[93.832478,7.200832],[93.776094,7.174476],[93.691517,7.069053],[93.719709,7.042697],[93.719709,6.989985],[93.776094,6.937273],[93.776094,6.884562],[93.832478,6.83185],[93.832478,6.779138],[93.86067,6.752783],[93.945247,6.752783],[94.001632,6.83185],[94.001632,6.989985],[93.973439,7.016341],[93.973439,7.095408],[93.917055,7.14812],[93.917055,7.174476],[93.888863,7.200832],[93.832478,7.200832]]],[[[92.479249,11.075139],[92.394672,11.048783],[92.310096,10.943359],[92.310096,10.890648],[92.281903,10.837936],[92.310096,10.81158],[92.310096,10.732513],[92.338288,10.679801],[92.479249,10.679801],[92.535634,10.732513],[92.535634,10.837936],[92.563826,10.864292],[92.563826,10.917004],[92.535634,10.943359],[92.535634,11.022427],[92.479249,11.075139]]],[[[93.550555,8.228709],[93.494171,8.202353],[93.494171,8.09693],[93.437786,8.044218],[93.437786,7.965151],[93.325017,7.886083],[93.325017,7.833372],[93.381402,7.78066],[93.465979,7.807016],[93.465979,7.886083],[93.494171,7.912439],[93.550555,7.912439],[93.578748,7.886083],[93.635132,7.912439],[93.635132,7.965151],[93.550555,8.017862],[93.550555,8.09693],[93.578748,8.123286],[93.578748,8.202353],[93.550555,8.228709]]],[[[93.663325,7.46439],[93.663325,7.358967],[93.635132,7.306255],[93.747901,7.306255],[93.804286,7.358967],[93.776094,7.438034],[93.719709,7.46439],[93.663325,7.46439]]],[[[92.761172,9.282942],[92.704787,9.230231],[92.704787,9.177519],[92.789364,9.151163],[92.817556,9.177519],[92.817556,9.256586],[92.761172,9.282942]]],[[[72.180814,11.523188],[72.152622,11.496832],[72.152622,11.391409],[72.180814,11.365053],[72.237199,11.365053],[72.237199,11.44412],[72.180814,11.523188]]],[[[72.434545,10.205396],[72.37816,10.205396],[72.37816,10.126329],[72.293583,10.073617],[72.293583,10.020905],[72.349968,10.020905],[72.37816,10.047261],[72.37816,10.126329],[72.434545,10.17904],[72.434545,10.205396]]],[[[72.575506,11.654967],[72.519122,11.654967],[72.519122,11.628611],[72.462737,11.602255],[72.462737,11.523188],[72.490929,11.523188],[72.575506,11.602255],[72.575506,11.654967]]]]}}]}